[{"OBJECT_NAME":"ONEWEB-0380","OBJECT_ID":"2021-090AD","EPOCH":"2025-10-19T14:50:33.483840","MEAN_MOTION":13.1972437,"ECCENTRICITY":0.00018483,"INCLINATION":87.9259,"RA_OF_ASC_NODE":352.8344,"ARG_OF_PERICENTER":92.9416,"MEAN_ANOMALY":267.1928,"EPHEMERIS_TYPE":0,"CLASSIFICATION_TYPE":"U","NORAD_CAT_ID":49306,"ELEMENT_SET_NO":999,"REV_AT_EPOCH":19469,"BSTAR":8.4931805e-5,"MEAN_MOTION_DOT":4.7e-7,"MEAN_MOTION_DDOT":0},{"OBJECT_NAME":"ONEWEB-0381","OBJECT_ID":"2021-090AE","EPOCH":"2025-10-19T22:24:18.149760","MEAN_MOTION":13.20770881,"ECCENTRICITY":0.00017415,"INCLINATION":87.9204,"RA_OF_ASC_NODE":322.3556,"ARG_OF_PERICENTER":86.7835,"MEAN_ANOMALY":273.3497,"EPHEMERIS_TYPE":0,"CLASSIFICATION_TYPE":"U","NORAD_CAT_ID":49307,"ELEMENT_SET_NO":999,"REV_AT_EPOCH":19811,"BSTAR":0.00020397012,"MEAN_MOTION_DOT":9.6e-7,"MEAN_MOTION_DDOT":0},{"OBJECT_NAME":"ONEWEB-0382","OBJECT_ID":"2021-090AF","EPOCH":"2025-10-19T23:55:12.003744","MEAN_MOTION":13.20769517,"ECCENTRICITY":0.00016039,"INCLINATION":87.921,"RA_OF_ASC_NODE":322.3349,"ARG_OF_PERICENTER":88.8982,"MEAN_ANOMALY":271.2335,"EPHEMERIS_TYPE":0,"CLASSIFICATION_TYPE":"U","NORAD_CAT_ID":49308,"ELEMENT_SET_NO":999,"REV_AT_EPOCH":19811,"BSTAR":-5.1382969e-5,"MEAN_MOTION_DOT":-8.0e-8,"MEAN_MOTION_DDOT":0},{"OBJECT_NAME":"ONEWEB-0383","OBJECT_ID":"2021-090AG","EPOCH":"2025-10-19T21:07:04.414944","MEAN_MOTION":13.14502199,"ECCENTRICITY":0.00016676,"INCLINATION":87.9037,"RA_OF_ASC_NODE":337.5587,"ARG_OF_PERICENTER":97.9762,"MEAN_ANOMALY":262.1557,"EPHEMERIS_TYPE":0,"CLASSIFICATION_TYPE":"U","NORAD_CAT_ID":49309,"ELEMENT_SET_NO":999,"REV_AT_EPOCH":19602,"BSTAR":0.00034631626,"MEAN_MOTION_DOT":1.41e-6,"MEAN_MOTION_DDOT":0},{"OBJECT_NAME":"ONEWEB-0384","OBJECT_ID":"2021-090AH","EPOCH":"2025-10-19T20:09:02.789568","MEAN_MOTION":13.20795473,"ECCENTRICITY":0.00013688,"INCLINATION":87.9227,"RA_OF_ASC_NODE":322.3969,"ARG_OF_PERICENTER":89.5464,"MEAN_ANOMALY":270.5826,"EPHEMERIS_TYPE":0,"CLASSIFICATION_TYPE":"U","NORAD_CAT_ID":49310,"ELEMENT_SET_NO":999,"REV_AT_EPOCH":19810,"BSTAR":-0.00020827635,"MEAN_MOTION_DOT":-7.2e-7,"MEAN_MOTION_DDOT":0},{"OBJECT_NAME":"ONEWEB-0385","OBJECT_ID":"2021-090AJ","EPOCH":"2025-10-19T23:43:51.068064","MEAN_MOTION":13.20771097,"ECCENTRICITY":0.00017297,"INCLINATION":87.9203,"RA_OF_ASC_NODE":322.3463,"ARG_OF_PERICENTER":92.0916,"MEAN_ANOMALY":268.0415,"EPHEMERIS_TYPE":0,"CLASSIFICATION_TYPE":"U","NORAD_CAT_ID":49311,"ELEMENT_SET_NO":999,"REV_AT_EPOCH":19809,"BSTAR":3.860323e-6,"MEAN_MOTION_DOT":1.5e-7,"MEAN_MOTION_DDOT":0},{"OBJECT_NAME":"ONEWEB-0386","OBJECT_ID":"2021-090AK","EPOCH":"2025-10-19T22:19:44.939136","MEAN_MOTION":13.20770895,"ECCENTRICITY":0.00015926,"INCLINATION":87.9214,"RA_OF_ASC_NODE":322.337,"ARG_OF_PERICENTER":91.7789,"MEAN_ANOMALY":268.3526,"EPHEMERIS_TYPE":0,"CLASSIFICATION_TYPE":"U","NORAD_CAT_ID":49312,"ELEMENT_SET_NO":999,"REV_AT_EPOCH":19810,"BSTAR":6.9850549e-5,"MEAN_MOTION_DOT":4.1e-7,"MEAN_MOTION_DDOT":0},{"OBJECT_NAME":"ONEWEB-0387","OBJECT_ID":"2021-090AL","EPOCH":"2025-10-19T23:46:06.037824","MEAN_MOTION":13.20769322,"ECCENTRICITY":0.00019096,"INCLINATION":87.9204,"RA_OF_ASC_NODE":322.3754,"ARG_OF_PERICENTER":84.8617,"MEAN_ANOMALY":275.2734,"EPHEMERIS_TYPE":0,"CLASSIFICATION_TYPE":"U","NORAD_CAT_ID":49313,"ELEMENT_SET_NO":999,"REV_AT_EPOCH":19811,"BSTAR":-9.555117e-6,"MEAN_MOTION_DOT":9.0e-8,"MEAN_MOTION_DDOT":0},{"OBJECT_NAME":"ONEWEB-0388","OBJECT_ID":"2021-090AM","EPOCH":"2025-10-19T14:43:43.923648","MEAN_MOTION":13.197246,"ECCENTRICITY":0.00017253,"INCLINATION":87.9253,"RA_OF_ASC_NODE":352.8408,"ARG_OF_PERICENTER":97.1306,"MEAN_ANOMALY":263.0023,"EPHEMERIS_TYPE":0,"CLASSIFICATION_TYPE":"U","NORAD_CAT_ID":49314,"ELEMENT_SET_NO":999,"REV_AT_EPOCH":19468,"BSTAR":0.00012178659,"MEAN_MOTION_DOT":6.2e-7,"MEAN_MOTION_DDOT":0},{"OBJECT_NAME":"ONEWEB-0389","OBJECT_ID":"2021-132A","EPOCH":"2025-10-19T18:50:07.472544","MEAN_MOTION":13.17648662,"ECCENTRICITY":0.00014987,"INCLINATION":87.9111,"RA_OF_ASC_NODE":53.6746,"ARG_OF_PERICENTER":86.9612,"MEAN_ANOMALY":273.1691,"EPHEMERIS_TYPE":0,"CLASSIFICATION_TYPE":"U","NORAD_CAT_ID":50469,"ELEMENT_SET_NO":999,"REV_AT_EPOCH":18642,"BSTAR":5.0871229e-5,"MEAN_MOTION_DOT":3.3e-7,"MEAN_MOTION_DDOT":0},{"OBJECT_NAME":"ONEWEB-0390","OBJECT_ID":"2021-132B","EPOCH":"2025-10-19T18:52:32.390400","MEAN_MOTION":13.17648238,"ECCENTRICITY":0.00019149,"INCLINATION":87.911,"RA_OF_ASC_NODE":53.6799,"ARG_OF_PERICENTER":96.3604,"MEAN_ANOMALY":263.7746,"EPHEMERIS_TYPE":0,"CLASSIFICATION_TYPE":"U","NORAD_CAT_ID":50470,"ELEMENT_SET_NO":999,"REV_AT_EPOCH":18642,"BSTAR":0.00022431608,"MEAN_MOTION_DOT":1.0e-6,"MEAN_MOTION_DDOT":0},{"OBJECT_NAME":"ONEWEB-0391","OBJECT_ID":"2021-132C","EPOCH":"2025-10-19T18:54:59.425056","MEAN_MOTION":13.17649742,"ECCENTRICITY":0.0001828,"INCLINATION":87.9106,"RA_OF_ASC_NODE":53.6905,"ARG_OF_PERICENTER":71.8873,"MEAN_ANOMALY":288.2457,"EPHEMERIS_TYPE":0,"CLASSIFICATION_TYPE":"U","NORAD_CAT_ID":50471,"ELEMENT_SET_NO":999,"REV_AT_EPOCH":18642,"BSTAR":0.0001926339,"MEAN_MOTION_DOT":8.8e-7,"MEAN_MOTION_DDOT":0},{"OBJECT_NAME":"ONEWEB-0392","OBJECT_ID":"2021-132D","EPOCH":"2025-10-19T21:28:04.218528","MEAN_MOTION":13.17649628,"ECCENTRICITY":0.00015844,"INCLINATION":87.9114,"RA_OF_ASC_NODE":53.6172,"ARG_OF_PERICENTER":86.5794,"MEAN_ANOMALY":273.5519,"EPHEMERIS_TYPE":0,"CLASSIFICATION_TYPE":"U","NORAD_CAT_ID":50472,"ELEMENT_SET_NO":999,"REV_AT_EPOCH":18647,"BSTAR":-0.00021869346,"MEAN_MOTION_DOT":-7.2e-7,"MEAN_MOTION_DDOT":0},{"OBJECT_NAME":"ONEWEB-0393","OBJECT_ID":"2021-132E","EPOCH":"2025-10-19T15:21:21.270528","MEAN_MOTION":13.17650529,"ECCENTRICITY":0.00016033,"INCLINATION":87.9115,"RA_OF_ASC_NODE":53.6883,"ARG_OF_PERICENTER":93.5856,"MEAN_ANOMALY":266.5459,"EPHEMERIS_TYPE":0,"CLASSIFICATION_TYPE":"U","NORAD_CAT_ID":50473,"ELEMENT_SET_NO":999,"REV_AT_EPOCH":18643,"BSTAR":4.7999512e-5,"MEAN_MOTION_DOT":3.2e-7,"MEAN_MOTION_DDOT":0},{"OBJECT_NAME":"ONEWEB-0394","OBJECT_ID":"2021-132F","EPOCH":"2025-10-19T06:22:47.762112","MEAN_MOTION":13.18685631,"ECCENTRICITY":0.00016539,"INCLINATION":87.9231,"RA_OF_ASC_NODE":23.2826,"ARG_OF_PERICENTER":97.0314,"MEAN_ANOMALY":263.1006,"EPHEMERIS_TYPE":0,"CLASSIFICATION_TYPE":"U","NORAD_CAT_ID":50474,"ELEMENT_SET_NO":999,"REV_AT_EPOCH":18984,"BSTAR":9.4505095e-5,"MEAN_MOTION_DOT":5.0e-7,"MEAN_MOTION_DDOT":0},{"OBJECT_NAME":"ONEWEB-0395","OBJECT_ID":"2021-132G","EPOCH":"2025-10-19T21:48:16.560000","MEAN_MOTION":13.11417355,"ECCENTRICITY":0.00017789,"INCLINATION":87.8825,"RA_OF_ASC_NODE":68.93,"ARG_OF_PERICENTER":90.5622,"MEAN_ANOMALY":269.571,"EPHEMERIS_TYPE":0,"CLASSIFICATION_TYPE":"U","NORAD_CAT_ID":50475,"ELEMENT_SET_NO":999,"REV_AT_EPOCH":18422,"BSTAR":0.0014463808,"MEAN_MOTION_DOT":5.25e-6,"MEAN_MOTION_DDOT":0},{"OBJECT_NAME":"ONEWEB-0396","OBJECT_ID":"2021-132H","EPOCH":"2025-10-19T06:13:17.281920","MEAN_MOTION":13.18685532,"ECCENTRICITY":0.00017046,"INCLINATION":87.9233,"RA_OF_ASC_NODE":23.2964,"ARG_OF_PERICENTER":98.6407,"MEAN_ANOMALY":261.4918,"EPHEMERIS_TYPE":0,"CLASSIFICATION_TYPE":"U","NORAD_CAT_ID":50476,"ELEMENT_SET_NO":999,"REV_AT_EPOCH":18988,"BSTAR":0.00011282292,"MEAN_MOTION_DOT":5.7e-7,"MEAN_MOTION_DDOT":0},{"OBJECT_NAME":"ONEWEB-0397","OBJECT_ID":"2021-132J","EPOCH":"2025-10-19T15:40:58.403136","MEAN_MOTION":13.18684916,"ECCENTRICITY":0.00015927,"INCLINATION":87.9231,"RA_OF_ASC_NODE":23.2186,"ARG_OF_PERICENTER":101.4612,"MEAN_ANOMALY":258.67,"EPHEMERIS_TYPE":0,"CLASSIFICATION_TYPE":"U","NORAD_CAT_ID":50477,"ELEMENT_SET_NO":999,"REV_AT_EPOCH":18991,"BSTAR":9.633693e-6,"MEAN_MOTION_DOT":1.7e-7,"MEAN_MOTION_DDOT":0},{"OBJECT_NAME":"ONEWEB-0398","OBJECT_ID":"2021-132K","EPOCH":"2025-10-19T19:11:59.750304","MEAN_MOTION":13.11416655,"ECCENTRICITY":0.0001993,"INCLINATION":87.8833,"RA_OF_ASC_NODE":68.9202,"ARG_OF_PERICENTER":93.8957,"MEAN_ANOMALY":266.2399,"EPHEMERIS_TYPE":0,"CLASSIFICATION_TYPE":"U","NORAD_CAT_ID":50478,"ELEMENT_SET_NO":999,"REV_AT_EPOCH":18410,"BSTAR":-0.0014973131,"MEAN_MOTION_DOT":-5.18e-6,"MEAN_MOTION_DDOT":0},{"OBJECT_NAME":"ONEWEB-0399","OBJECT_ID":"2021-132L","EPOCH":"2025-10-19T22:32:11.798016","MEAN_MOTION":13.11416027,"ECCENTRICITY":0.00012797,"INCLINATION":87.8821,"RA_OF_ASC_NODE":68.9109,"ARG_OF_PERICENTER":80.1414,"MEAN_ANOMALY":279.9859,"EPHEMERIS_TYPE":0,"CLASSIFICATION_TYPE":"U","NORAD_CAT_ID":50479,"ELEMENT_SET_NO":999,"REV_AT_EPOCH":18411,"BSTAR":-0.0013214088,"MEAN_MOTION_DOT":-4.56e-6,"MEAN_MOTION_DDOT":0},{"OBJECT_NAME":"ONEWEB-0400","OBJECT_ID":"2021-132M","EPOCH":"2025-10-19T16:59:21.505920","MEAN_MOTION":13.18685408,"ECCENTRICITY":0.00019776,"INCLINATION":87.923,"RA_OF_ASC_NODE":23.1978,"ARG_OF_PERICENTER":100.8063,"MEAN_ANOMALY":259.3292,"EPHEMERIS_TYPE":0,"CLASSIFICATION_TYPE":"U","NORAD_CAT_ID":50480,"ELEMENT_SET_NO":999,"REV_AT_EPOCH":18991,"BSTAR":3.3354094e-5,"MEAN_MOTION_DOT":2.6e-7,"MEAN_MOTION_DDOT":0},{"OBJECT_NAME":"ONEWEB-0401","OBJECT_ID":"2021-132N","EPOCH":"2025-10-19T05:18:39.795552","MEAN_MOTION":13.18685182,"ECCENTRICITY":0.00016435,"INCLINATION":87.9231,"RA_OF_ASC_NODE":23.2917,"ARG_OF_PERICENTER":105.7524,"MEAN_ANOMALY":254.3789,"EPHEMERIS_TYPE":0,"CLASSIFICATION_TYPE":"U","NORAD_CAT_ID":50481,"ELEMENT_SET_NO":999,"REV_AT_EPOCH":18985,"BSTAR":9.9875931e-5,"MEAN_MOTION_DOT":5.2e-7,"MEAN_MOTION_DDOT":0},{"OBJECT_NAME":"ONEWEB-0402","OBJECT_ID":"2021-132P","EPOCH":"2025-10-19T08:04:55.364160","MEAN_MOTION":13.18685348,"ECCENTRICITY":0.00014175,"INCLINATION":87.9228,"RA_OF_ASC_NODE":23.2614,"ARG_OF_PERICENTER":120.4439,"MEAN_ANOMALY":239.6834,"EPHEMERIS_TYPE":0,"CLASSIFICATION_TYPE":"U","NORAD_CAT_ID":50482,"ELEMENT_SET_NO":999,"REV_AT_EPOCH":18989,"BSTAR":0.00025523625,"MEAN_MOTION_DOT":1.14e-6,"MEAN_MOTION_DDOT":0}]
